[{"OBJECT_NAME":"STARLINK-3527","OBJECT_ID":"2022-016N","EPOCH":"2026-03-09T22:42:40.124736","MEAN_MOTION":15.0895963,"ECCENTRICITY":0.00012129,"INCLINATION":53.2166,"RA_OF_ASC_NODE":317.9674,"ARG_OF_PERICENTER":98.5905,"MEAN_ANOMALY":261.5225,"EPHEMERIS_TYPE":0,"CLASSIFICATION_TYPE":"U","NORAD_CAT_ID":51726,"ELEMENT_SET_NO":999,"REV_AT_EPOCH":22360,"BSTAR":0.00054417406,"MEAN_MOTION_DOT":8.411e-5,"MEAN_MOTION_DDOT":0},{"OBJECT_NAME":"FENGYUN 1C DEB","OBJECT_ID":"1999-025DVA","EPOCH":"2026-03-08T04:27:49.439232","MEAN_MOTION":15.15496966,"ECCENTRICITY":0.00338373,"INCLINATION":98.8203,"RA_OF_ASC_NODE":206.4896,"ARG_OF_PERICENTER":4.2711,"MEAN_ANOMALY":355.88,"EPHEMERIS_TYPE":0,"CLASSIFICATION_TYPE":"U","NORAD_CAT_ID":36225,"ELEMENT_SET_NO":999,"REV_AT_EPOCH":68062,"BSTAR":0.0036229129,"MEAN_MOTION_DOT":0.00070122,"MEAN_MOTION_DDOT":0}]
